CCSDS_OMM_VERS = 2.0
CREATION_DATE  = 
ORIGINATOR     = 

OBJECT_NAME    = STARLINK-35816
OBJECT_ID      = 2025-263Q
CENTER_NAME    = EARTH
REF_FRAME      = TEME
TIME_SYSTEM    = UTC
MEAN_ELEMENT_THEORY = SGP/SGP4

EPOCH          = 2025-12-10T12:00:02.998944
MEAN_MOTION    = 15.49131342
ECCENTRICITY   = .0001674
INCLINATION    = 43.0004
RA_OF_ASC_NODE = 138.2006
ARG_OF_PERICENTER = 268.5400
MEAN_ANOMALY   = 124.1441

EPHEMERIS_TYPE = 0
CLASSIFICATION_TYPE = U
NORAD_CAT_ID   = 66499
ELEMENT_SET_NO = 999
REV_AT_EPOCH   = 527
BSTAR          = -.41729E-1
MEAN_MOTION_DOT = -.2068318E-1
MEAN_MOTION_DDOT = 0

CCSDS_OMM_VERS = 2.0
CREATION_DATE  = 
ORIGINATOR     = 

OBJECT_NAME    = STARLINK-35894
OBJECT_ID      = 2025-263R
CENTER_NAME    = EARTH
REF_FRAME      = TEME
TIME_SYSTEM    = UTC
MEAN_ELEMENT_THEORY = SGP/SGP4

EPOCH          = 2025-12-10T12:00:02.998944
MEAN_MOTION    = 15.46998998
ECCENTRICITY   = .0001496
INCLINATION    = 42.9999
RA_OF_ASC_NODE = 138.3279
ARG_OF_PERICENTER = 269.9453
MEAN_ANOMALY   = 70.9773

EPHEMERIS_TYPE = 0
CLASSIFICATION_TYPE = U
NORAD_CAT_ID   = 66500
ELEMENT_SET_NO = 999
REV_AT_EPOCH   = 527
BSTAR          = -.39632E-1
MEAN_MOTION_DOT = -.184618E-1
MEAN_MOTION_DDOT = 0

CCSDS_OMM_VERS = 2.0
CREATION_DATE  = 
ORIGINATOR     = 

OBJECT_NAME    = STARLINK-35897
OBJECT_ID      = 2025-263S
CENTER_NAME    = EARTH
REF_FRAME      = TEME
TIME_SYSTEM    = UTC
MEAN_ELEMENT_THEORY = SGP/SGP4

EPOCH          = 2025-12-10T12:00:02.998944
MEAN_MOTION    = 15.50775314
ECCENTRICITY   = .0001701
INCLINATION    = 43.0005
RA_OF_ASC_NODE = 138.1939
ARG_OF_PERICENTER = 267.4357
MEAN_ANOMALY   = 127.9687

EPHEMERIS_TYPE = 0
CLASSIFICATION_TYPE = U
NORAD_CAT_ID   = 66501
ELEMENT_SET_NO = 999
REV_AT_EPOCH   = 527
BSTAR          = -.9836E-2
MEAN_MOTION_DOT = -.54289E-2
MEAN_MOTION_DDOT = 0

CCSDS_OMM_VERS = 2.0
CREATION_DATE  = 
ORIGINATOR     = 

OBJECT_NAME    = STARLINK-35922
OBJECT_ID      = 2025-263T
CENTER_NAME    = EARTH
REF_FRAME      = TEME
TIME_SYSTEM    = UTC
MEAN_ELEMENT_THEORY = SGP/SGP4

EPOCH          = 2025-12-10T12:00:02.998944
MEAN_MOTION    = 15.50617558
ECCENTRICITY   = .0001598
INCLINATION    = 43.0005
RA_OF_ASC_NODE = 138.1790
ARG_OF_PERICENTER = 265.6313
MEAN_ANOMALY   = 135.5598

EPHEMERIS_TYPE = 0
CLASSIFICATION_TYPE = U
NORAD_CAT_ID   = 66502
ELEMENT_SET_NO = 999
REV_AT_EPOCH   = 527
BSTAR          = -.18293E-2
MEAN_MOTION_DOT = -.10636E-2
MEAN_MOTION_DDOT = 0

CCSDS_OMM_VERS = 2.0
CREATION_DATE  = 
ORIGINATOR     = 

OBJECT_NAME    = STARLINK-35917
OBJECT_ID      = 2025-263U
CENTER_NAME    = EARTH
REF_FRAME      = TEME
TIME_SYSTEM    = UTC
MEAN_ELEMENT_THEORY = SGP/SGP4

EPOCH          = 2025-12-10T06:00:02.000160
MEAN_MOTION    = 15.50592096
ECCENTRICITY   = .00017754
INCLINATION    = 43.0008
RA_OF_ASC_NODE = 139.6302
ARG_OF_PERICENTER = 264.5583
MEAN_ANOMALY   = 183.2320

EPHEMERIS_TYPE = 0
CLASSIFICATION_TYPE = U
NORAD_CAT_ID   = 66503
ELEMENT_SET_NO = 999
REV_AT_EPOCH   = 523
BSTAR          = -.12876374E-2
MEAN_MOTION_DOT = -.75197E-3
MEAN_MOTION_DDOT = 0

CCSDS_OMM_VERS = 2.0
CREATION_DATE  = 
ORIGINATOR     = 

OBJECT_NAME    = STARLINK-35916
OBJECT_ID      = 2025-263V
CENTER_NAME    = EARTH
REF_FRAME      = TEME
TIME_SYSTEM    = UTC
MEAN_ELEMENT_THEORY = SGP/SGP4

EPOCH          = 2025-12-09T22:39:36.400320
MEAN_MOTION    = 15.40719058
ECCENTRICITY   = .00015372
INCLINATION    = 43.0001
RA_OF_ASC_NODE = 142.7409
ARG_OF_PERICENTER = 268.6806
MEAN_ANOMALY   = 91.3875

EPHEMERIS_TYPE = 0
CLASSIFICATION_TYPE = U
NORAD_CAT_ID   = 66504
ELEMENT_SET_NO = 999
REV_AT_EPOCH   = 511
BSTAR          = .11340685E-2
MEAN_MOTION_DOT = .47394E-3
MEAN_MOTION_DDOT = 0

CCSDS_OMM_VERS = 2.0
CREATION_DATE  = 
ORIGINATOR     = 

OBJECT_NAME    = STARLINK-34766
OBJECT_ID      = 2025-263W
CENTER_NAME    = EARTH
REF_FRAME      = TEME
TIME_SYSTEM    = UTC
MEAN_ELEMENT_THEORY = SGP/SGP4

EPOCH          = 2025-12-10T12:00:02.998944
MEAN_MOTION    = 15.50611226
ECCENTRICITY   = .0001718
INCLINATION    = 43.0006
RA_OF_ASC_NODE = 138.1884
ARG_OF_PERICENTER = 263.4987
MEAN_ANOMALY   = 133.8579

EPHEMERIS_TYPE = 0
CLASSIFICATION_TYPE = U
NORAD_CAT_ID   = 66505
ELEMENT_SET_NO = 999
REV_AT_EPOCH   = 527
BSTAR          = -.16477E-2
MEAN_MOTION_DOT = -.95943E-3
MEAN_MOTION_DDOT = 0

CCSDS_OMM_VERS = 2.0
CREATION_DATE  = 
ORIGINATOR     = 

OBJECT_NAME    = STARLINK-34765
OBJECT_ID      = 2025-263X
CENTER_NAME    = EARTH
REF_FRAME      = TEME
TIME_SYSTEM    = UTC
MEAN_ELEMENT_THEORY = SGP/SGP4

EPOCH          = 2025-12-10T12:00:02.998944
MEAN_MOTION    = 15.50616574
ECCENTRICITY   = .0001636
INCLINATION    = 43.0006
RA_OF_ASC_NODE = 138.1843
ARG_OF_PERICENTER = 260.5200
MEAN_ANOMALY   = 138.7532

EPHEMERIS_TYPE = 0
CLASSIFICATION_TYPE = U
NORAD_CAT_ID   = 66506
ELEMENT_SET_NO = 999
REV_AT_EPOCH   = 527
BSTAR          = -.18133E-2
MEAN_MOTION_DOT = -.105443E-2
MEAN_MOTION_DDOT = 0

CCSDS_OMM_VERS = 2.0
CREATION_DATE  = 
ORIGINATOR     = 

OBJECT_NAME    = STARLINK-34767
OBJECT_ID      = 2025-263Y
CENTER_NAME    = EARTH
REF_FRAME      = TEME
TIME_SYSTEM    = UTC
MEAN_ELEMENT_THEORY = SGP/SGP4

EPOCH          = 2025-12-10T12:00:02.998944
MEAN_MOTION    = 15.50588235
ECCENTRICITY   = .0001448
INCLINATION    = 43.0006
RA_OF_ASC_NODE = 138.1734
ARG_OF_PERICENTER = 264.6155
MEAN_ANOMALY   = 138.4940

EPHEMERIS_TYPE = 0
CLASSIFICATION_TYPE = U
NORAD_CAT_ID   = 66507
ELEMENT_SET_NO = 999
REV_AT_EPOCH   = 527
BSTAR          = -.52822E-3
MEAN_MOTION_DOT = -.31216E-3
MEAN_MOTION_DDOT = 0

CCSDS_OMM_VERS = 2.0
CREATION_DATE  = 
ORIGINATOR     = 

OBJECT_NAME    = STARLINK-35608
OBJECT_ID      = 2025-263Z
CENTER_NAME    = EARTH
REF_FRAME      = TEME
TIME_SYSTEM    = UTC
MEAN_ELEMENT_THEORY = SGP/SGP4

EPOCH          = 2025-12-10T12:00:02.998944
MEAN_MOTION    = 15.50614057
ECCENTRICITY   = .0001607
INCLINATION    = 43.0005
RA_OF_ASC_NODE = 138.1604
ARG_OF_PERICENTER = 263.8171
MEAN_ANOMALY   = 145.0434

EPHEMERIS_TYPE = 0
CLASSIFICATION_TYPE = U
NORAD_CAT_ID   = 66508
ELEMENT_SET_NO = 999
REV_AT_EPOCH   = 527
BSTAR          = -.17527E-2
MEAN_MOTION_DOT = -.101963E-2
MEAN_MOTION_DDOT = 0

CCSDS_OMM_VERS = 2.0
CREATION_DATE  = 
ORIGINATOR     = 

OBJECT_NAME    = STARLINK-35598
OBJECT_ID      = 2025-263AA
CENTER_NAME    = EARTH
REF_FRAME      = TEME
TIME_SYSTEM    = UTC
MEAN_ELEMENT_THEORY = SGP/SGP4

EPOCH          = 2025-12-10T12:00:02.998944
MEAN_MOTION    = 15.50599111
ECCENTRICITY   = .000143
INCLINATION    = 43.0005
RA_OF_ASC_NODE = 138.1389
ARG_OF_PERICENTER = 262.5897
MEAN_ANOMALY   = 153.9411

EPHEMERIS_TYPE = 0
CLASSIFICATION_TYPE = U
NORAD_CAT_ID   = 66509
ELEMENT_SET_NO = 999
REV_AT_EPOCH   = 527
BSTAR          = -.12204E-2
MEAN_MOTION_DOT = -.71336E-3
MEAN_MOTION_DDOT = 0

CCSDS_OMM_VERS = 2.0
CREATION_DATE  = 
ORIGINATOR     = 

OBJECT_NAME    = STARLINK-35600
OBJECT_ID      = 2025-263AB
CENTER_NAME    = EARTH
REF_FRAME      = TEME
TIME_SYSTEM    = UTC
MEAN_ELEMENT_THEORY = SGP/SGP4

EPOCH          = 2025-12-10T12:00:02.998944
MEAN_MOTION    = 15.50614967
ECCENTRICITY   = .0001566
INCLINATION    = 43.0005
RA_OF_ASC_NODE = 138.1544
ARG_OF_PERICENTER = 263.6887
MEAN_ANOMALY   = 147.0883

EPHEMERIS_TYPE = 0
CLASSIFICATION_TYPE = U
NORAD_CAT_ID   = 66510
ELEMENT_SET_NO = 999
REV_AT_EPOCH   = 527
BSTAR          = -.17092E-2
MEAN_MOTION_DOT = -.99478E-3
MEAN_MOTION_DDOT = 0

