STARLINK-35816          
1 66499U 25263Q   25344.50003471 -.02068318  00000+0 -41729-1 0  9993
2 66499  43.0004 138.2006 0001674 268.5400 124.1441 15.49131342  5274
STARLINK-35894          
1 66500U 25263R   25344.50003471 -.01846180  00000+0 -39632-1 0  9996
2 66500  42.9999 138.3279 0001496 269.9453  70.9773 15.46998998  5277
STARLINK-35897          
1 66501U 25263S   25344.50003471 -.00542890  00000+0 -98360-2 0  9991
2 66501  43.0005 138.1939 0001701 267.4357 127.9687 15.50775314  5271
STARLINK-35922          
1 66502U 25263T   25344.50003471 -.00106360  00000+0 -18293-2 0  9997
2 66502  43.0005 138.1790 0001598 265.6313 135.5598 15.50617558  5274
STARLINK-35917          
1 66503U 25263U   25344.25002315 -.00075197  00000+0 -12876-2 0  9990
2 66503  43.0008 139.6302 0001775 264.5583 183.2320 15.50592096  5235
STARLINK-35916          
1 66504U 25263V   25343.94417130  .00047394  00000+0  11341-2 0  9993
2 66504  43.0001 142.7409 0001537 268.6806  91.3875 15.40719058  5110
STARLINK-34766          
1 66505U 25263W   25344.50003471 -.00095943  00000+0 -16477-2 0  9996
2 66505  43.0006 138.1884 0001718 263.4987 133.8579 15.50611226  5275
STARLINK-34765          
1 66506U 25263X   25344.50003471 -.00105443  00000+0 -18133-2 0  9995
2 66506  43.0006 138.1843 0001636 260.5200 138.7532 15.50616574  5270
STARLINK-34767          
1 66507U 25263Y   25344.50003471 -.00031216  00000+0 -52822-3 0  9996
2 66507  43.0006 138.1734 0001448 264.6155 138.4940 15.50588235  5277
STARLINK-35608          
1 66508U 25263Z   25344.50003471 -.00101963  00000+0 -17527-2 0  9996
2 66508  43.0005 138.1604 0001607 263.8171 145.0434 15.50614057  5273
STARLINK-35598          
1 66509U 25263AA  25344.50003471 -.00071336  00000+0 -12204-2 0  9994
2 66509  43.0005 138.1389 0001430 262.5897 153.9411 15.50599111  5275
STARLINK-35600          
1 66510U 25263AB  25344.50003471 -.00099478  00000+0 -17092-2 0  9993
2 66510  43.0005 138.1544 0001566 263.6887 147.0883 15.50614967  5275
